[
    {
        "case_number": "1984 E-66",
        "decedent_info": {
            "Decedent": "Malott, Eleanor M",
            "Address": "2115 Luray Avenue",
            "City/State/ZIP": "Cincinnati, OH 45206",
            "City": "Cincinnati",
            "State": "OH",
            "Zip": "45206"
        },
        "fiduciary_info": {
            "Fiduciary 1": "Ramos, Jr, G. Ernie",
            "Address": null,
            "City/State/ZIP": null,
            "City": null,
            "State": null,
            "Zip": null
        }
    },
    {
        "case_number": "2024 ES 00332",
        "decedent_info": {
            "Decedent": "Rinner, Clare L",
            "Address": "2011 Laurel Oak Dr.",
            "City/State/ZIP": "Amelia, OH 45102",
            "City": "Amelia",
            "State": "OH",
            "Zip": "45102"
        },
        "fiduciary_info": {
            "Fiduciary 1": "Rinner, Sr, Thomas Anthony",
            "Address": "594 Brantner Lane",
            "City/State/ZIP": "Cincinnati, OH 45244",
            "City": "Cincinnati",
            "State": "OH",
            "Zip": "45244"
        }
    },
    {
        "case_number": "2024 ES 00334",
        "decedent_info": {
            "Decedent": "Panno, John M.",
            "Address": "3219 Martin Road",
            "City/State/ZIP": "Pleasant Pln, OH 45162",
            "City": "Pleasant Pln",
            "State": "OH",
            "Zip": "45162"
        },
        "fiduciary_info": {
            "Fiduciary 1": "Boyd, Liza",
            "Address": "11435 County Road 4",
            "City/State/ZIP": "Waterloo, OH 45688",
            "City": "Waterloo",
            "State": "OH",
            "Zip": "45688"
        }
    },
    {
        "case_number": "2024 ES 00335",
        "decedent_info": {
            "Decedent": "Sturgill , Teresa Lynn",
            "Address": "1264 Twin Oak Lane",
            "City/State/ZIP": "Loveland, OH 45140",
            "City": "Loveland",
            "State": "OH",
            "Zip": "45140"
        },
        "fiduciary_info": {
            "Fiduciary 1": "Reid, Christy D",
            "Address": "2222 Wilshire Circle",
            "City/State/ZIP": "Goshen, OH 45122",
            "City": "Goshen",
            "State": "OH",
            "Zip": "45122"
        }
    },
    {
        "case_number": "2024 ES 00336",
        "decedent_info": {
            "Decedent": "Panno, Lynn K.",
            "Address": "3219 Martin Road",
            "City/State/ZIP": "Pleasant Pln, OH 45162",
            "City": "Pleasant Pln",
            "State": "OH",
            "Zip": "45162"
        },
        "fiduciary_info": {
            "Fiduciary 1": "Boyd, Liza",
            "Address": "11435 County Road 4",
            "City/State/ZIP": "Waterloo, OH 45688",
            "City": "Waterloo",
            "State": "OH",
            "Zip": "45688"
        }
    },
    {
        "case_number": "2024 ES 00337",
        "decedent_info": {
            "Decedent": "Cody, Betty L",
            "Address": "644 Stephenson Mill Road",
            "City/State/ZIP": "Walton, KY 41094",
            "City": "Walton",
            "State": "KY",
            "Zip": "41094"
        },
        "fiduciary_info": {
            "Fiduciary 1": "Henges, Cynthia C",
            "Address": null,
            "City/State/ZIP": null,
            "City": null,
            "State": null,
            "Zip": null
        }
    },
    {
        "case_number": "2024 ES 00338",
        "decedent_info": {
            "Decedent": "Liegel, Mark R",
            "Address": "1181 Shayler Woods Drive, Unit 6D",
            "City/State/ZIP": "Batavia, OH 45103",
            "City": "Batavia",
            "State": "OH",
            "Zip": "45103"
        },
        "fiduciary_info": {
            "Fiduciary 1": "Gallant, Claire Liegel",
            "Address": "403 Elizabeth St.",
            "City/State/ZIP": "Cincinnati, OH 45203",
            "City": "Cincinnati",
            "State": "OH",
            "Zip": "45203"
        }
    },
    {
        "case_number": "2024 ES 00338",
        "decedent_info": {
            "Decedent": "Liegel, Mark R",
            "Address": "1181 Shayler Woods Drive, Unit 6D",
            "City/State/ZIP": "Batavia, OH 45103",
            "City": "Batavia",
            "State": "OH",
            "Zip": "45103"
        },
        "fiduciary_info": {
            "Fiduciary 1": "Gallant, Claire Liegel",
            "Address": "403 Elizabeth St.",
            "City/State/ZIP": "Cincinnati, OH 45203",
            "City": "Cincinnati",
            "State": "OH",
            "Zip": "45203"
        }
    },
    {
        "case_number": "2024 ES 00339",
        "decedent_info": {
            "Decedent": "Hansbauer, James J.",
            "Address": "320 Turtlecreek Drive",
            "City/State/ZIP": "Loveland, OH 45140",
            "City": "Loveland",
            "State": "OH",
            "Zip": "45140"
        },
        "fiduciary_info": {
            "Fiduciary 1": "Hansbauer, Joy A.",
            "Address": "320 Turtlecreek Drive",
            "City/State/ZIP": "Loveland, OH 45140",
            "City": "Loveland",
            "State": "OH",
            "Zip": "45140"
        }
    },
    {
        "case_number": "2024 ES 00340",
        "decedent_info": {
            "Decedent": "Volz-Stahl, Bonnie",
            "Address": "6211 Greenbud Drive",
            "City/State/ZIP": "Goshen, OH 45122",
            "City": "Goshen",
            "State": "OH",
            "Zip": "45122"
        },
        "fiduciary_info": {
            "Fiduciary 1": "Stahl, Terry",
            "Address": "6211 Greenbud Drive",
            "City/State/ZIP": "Goshen, OH 45122",
            "City": "Goshen",
            "State": "OH",
            "Zip": "45122"
        }
    },
    {
        "case_number": "2024 ES 00342",
        "decedent_info": {
            "Decedent": "Potrafke, David Lee",
            "Address": "924 Tall Tres Drive",
            "City/State/ZIP": "Cincinnati, OH 45245",
            "City": "Cincinnati",
            "State": "OH",
            "Zip": "45245"
        },
        "fiduciary_info": {
            "Fiduciary 1": "Nigh, Karyn",
            "Address": "2114 Knights Bridge Drive",
            "City/State/ZIP": "Cincinnati, OH 45244",
            "City": "Cincinnati",
            "State": "OH",
            "Zip": "45244"
        }
    },
    {
        "case_number": "2024 ES 00344",
        "decedent_info": {
            "Decedent": "Clark, Carl B",
            "Address": "6680 Garrison-Spurling Rd.",
            "City/State/ZIP": "Pleasant Plain, OH 45162",
            "City": "Pleasant Plain",
            "State": "OH",
            "Zip": "45162"
        },
        "fiduciary_info": {
            "Fiduciary 1": "Clark, Carl G",
            "Address": "4888 Colony Square Dr.",
            "City/State/ZIP": "Independence, KY 41051",
            "City": "Independence",
            "State": "KY",
            "Zip": "41051"
        }
    },
    {
        "case_number": "2024 ES 00345",
        "decedent_info": {
            "Decedent": "Schneider, Mary Ann",
            "Address": "225 Cleveland Avenue",
            "City/State/ZIP": "Milford, OH 45150",
            "City": "Milford",
            "State": "OH",
            "Zip": "45150"
        },
        "fiduciary_info": {
            "Fiduciary 1": "Schneider, Stephen J.",
            "Address": "200 Brandenberg Drive",
            "City/State/ZIP": "Loveland, OH 45140",
            "City": "Loveland",
            "State": "OH",
            "Zip": "45140"
        }
    },
    {
        "case_number": "2024 ES 00346",
        "decedent_info": {
            "Decedent": "Pitcher, James Scott",
            "Address": "2307 State Route 28",
            "City/State/ZIP": "Goshen, OH 45122",
            "City": "Goshen",
            "State": "OH",
            "Zip": "45122"
        },
        "fiduciary_info": {
            "Fiduciary 1": "Daugherty, Sandra",
            "Address": "2307 State Route 28",
            "City/State/ZIP": "Goshen, OH 45122",
            "City": "Goshen",
            "State": "OH",
            "Zip": "45122"
        }
    },
    {
        "case_number": "2024 ES 00348",
        "decedent_info": {
            "Decedent": "Brown, Eric Duane",
            "Address": "6391 Charles Snider Road",
            "City/State/ZIP": "Loveland, OH 45140",
            "City": "Loveland",
            "State": "OH",
            "Zip": "45140"
        },
        "fiduciary_info": {
            "Fiduciary 1": "Charles F Rogers",
            "Address": "400 TechneCenter Drive\\r\\lSuite 400",
            "City/State/ZIP": "Milford, OH 45150",
            "City": "Milford",
            "State": "OH",
            "Zip": "45150"
        }
    },
    {
        "case_number": "2024 ES 00350",
        "decedent_info": {
            "Decedent": "Glover , Harry H",
            "Address": null,
            "City/State/ZIP": null,
            "City": null,
            "State": null,
            "Zip": null
        },
        "fiduciary_info": {
            "Fiduciary 1": "Meadows, Jennifer",
            "Address": null,
            "City/State/ZIP": null,
            "City": null,
            "State": null,
            "Zip": null
        }
    },
    {
        "case_number": "2024 ES 00352",
        "decedent_info": {
            "Decedent": "Franklin, Patricia",
            "Address": "242 South Main Street",
            "City/State/ZIP": "Bethel, OH 45106",
            "City": "Bethel",
            "State": "OH",
            "Zip": "45106"
        },
        "fiduciary_info": {
            "Fiduciary 1": "Baker, Larry",
            "Address": "119 Adkins Place",
            "City/State/ZIP": "Hamersville, OH 45130",
            "City": "Hamersville",
            "State": "OH",
            "Zip": "45130"
        }
    },
    {
        "case_number": "2024 ES 00354",
        "decedent_info": {
            "Decedent": "Birchall, Michael John",
            "Address": "1326 B Frank Willis Memorial Road",
            "City/State/ZIP": "New Richmond, OH 45157",
            "City": "New Richmond",
            "State": "OH",
            "Zip": "45157"
        },
        "fiduciary_info": {
            "Fiduciary 1": "Kisabeth, Steve",
            "Address": "3004 Coldspring Road",
            "City/State/ZIP": "Zanesville, IN 43701",
            "City": "Zanesville",
            "State": "IN",
            "Zip": "43701"
        }
    },
    {
        "case_number": "2024 ES 00355",
        "decedent_info": {
            "Decedent": "Howlett, Sr, Mayo E",
            "Address": "6840 Goshen Road",
            "City/State/ZIP": "Goshen, OH 45122",
            "City": "Goshen",
            "State": "OH",
            "Zip": "45122"
        },
        "fiduciary_info": {
            "Fiduciary 1": "Howlett, Jr, Mayo E",
            "Address": "753 Lakewood Dr.",
            "City/State/ZIP": "Taylor Mill, KY 41015",
            "City": "Taylor Mill",
            "State": "KY",
            "Zip": "41015"
        }
    },
    {
        "case_number": "2024 ES 00357",
        "decedent_info": {
            "Decedent": "Shouse, Michael",
            "Address": "400 TechneCenter Drive",
            "City/State/ZIP": "Milford, OH 45150",
            "City": "Milford",
            "State": "OH",
            "Zip": "45150"
        },
        "fiduciary_info": {
            "Fiduciary 1": "Charles F Rogers",
            "Address": "400 TechneCenter Drive",
            "City/State/ZIP": "Suite 400",
            "City": "Suite 400",
            "State": "",
            "Zip": null
        }
    },
    {
        "case_number": "2024 ES 00358",
        "decedent_info": {
            "Decedent": "Shouse, Stephen Douglas",
            "Address": "14825 Bodman Road",
            "City/State/ZIP": "Mount Orab, OH 45154",
            "City": "Mount Orab",
            "State": "OH",
            "Zip": "45154"
        },
        "fiduciary_info": {
            "Fiduciary 1": "Shouse, Ronald D.",
            "Address": "400 TechneCenter Drive",
            "City/State/ZIP": "Suite 400",
            "City": "Suite 400",
            "State": "",
            "Zip": null
        }
    },
    {
        "case_number": "2024 ES 00360",
        "decedent_info": {
            "Decedent": "Ungethuem, Carl F.",
            "Address": "3742 State Route 222",
            "City/State/ZIP": "Batavia, OH 45103",
            "City": "Batavia",
            "State": "OH",
            "Zip": "45103"
        },
        "fiduciary_info": {
            "Fiduciary 1": "Garber, Esther Louise",
            "Address": "40 S. Third Street",
            "City/State/ZIP": "Batavia, OH 45103",
            "City": "Batavia",
            "State": "OH",
            "Zip": "45103"
        }
    },
    {
        "case_number": "2024 ES 00362",
        "decedent_info": {
            "Decedent": "Demerle, Donald J",
            "Address": "3 Montgomery Way, Apt. 5",
            "City/State/ZIP": "Amelia, OH 45102",
            "City": "Amelia",
            "State": "OH",
            "Zip": "45102"
        },
        "fiduciary_info": {
            "Fiduciary 1": "Demerle, Melissa",
            "Address": "6362 Marathon Edenton Rd.",
            "City/State/ZIP": "Blanchester, OH 45107",
            "City": "Blanchester",
            "State": "OH",
            "Zip": "45107"
        }
    },
    {
        "case_number": "2024 ES 00364",
        "decedent_info": {
            "Decedent": "Miller, Rose M",
            "Address": "4226 Summit Rd.",
            "City/State/ZIP": "Batavia, OH 45103",
            "City": "Batavia",
            "State": "OH",
            "Zip": "45103"
        },
        "fiduciary_info": {
            "Fiduciary 1": "Miller, Joseph Michael",
            "Address": "4226 Summit Rd.",
            "City/State/ZIP": "Batavia, OH 45103",
            "City": "Batavia",
            "State": "OH",
            "Zip": "45103"
        }
    },
    {
        "case_number": "2024 ES 00368",
        "decedent_info": {
            "Decedent": "Tull, Jr, James Earl",
            "Address": "60 N .Fourth Street",
            "City/State/ZIP": "Batavia, OH 45103",
            "City": "Batavia",
            "State": "OH",
            "Zip": "45103"
        },
        "fiduciary_info": {
            "Fiduciary 1": "Lawrence Walker",
            "Address": "60 N. Fourth Street",
            "City/State/ZIP": "Batavia, OH 45103",
            "City": "Batavia",
            "State": "OH",
            "Zip": "45103"
        }
    },
    {
        "case_number": "2024 ES 00369",
        "decedent_info": {
            "Decedent": "McLane, Timothy Price",
            "Address": "225 Cleveland Avenue",
            "City/State/ZIP": "Milford, OH 45150",
            "City": "Milford",
            "State": "OH",
            "Zip": "45150"
        },
        "fiduciary_info": {
            "Fiduciary 1": "Godbey, Mark E",
            "Address": "708 Walnut St., Suite 600",
            "City/State/ZIP": "Cincinnati, OH 45202",
            "City": "Cincinnati",
            "State": "OH",
            "Zip": "45202"
        }
    },
    {
        "case_number": "2024 ES 00370",
        "decedent_info": {
            "Decedent": "Greene, Betty J.",
            "Address": "4145 West Fork Ridge Road",
            "City/State/ZIP": "Batavia, OH 45103",
            "City": "Batavia",
            "State": "OH",
            "Zip": "45103"
        },
        "fiduciary_info": {
            "Fiduciary 1": "Wallace, Bruce S",
            "Address": "108 S. High Street",
            "City/State/ZIP": "PO Box 467",
            "City": "PO Box 467",
            "State": "",
            "Zip": null
        }
    },
    {
        "case_number": "2024 ES 00371",
        "decedent_info": {
            "Decedent": "Roark, Helen",
            "Address": "403 Fourth Street",
            "City/State/ZIP": "Moscow, OH 45153",
            "City": "Moscow",
            "State": "OH",
            "Zip": "45153"
        },
        "fiduciary_info": {
            "Fiduciary 1": "Roark, Wesley Steven",
            "Address": "69 Elizabeth Street P O Box 117",
            "City/State/ZIP": "Moscow, OH 45153",
            "City": "Moscow",
            "State": "OH",
            "Zip": "45153"
        }
    },
    {
        "case_number": "2024 ES 00372",
        "decedent_info": {
            "Decedent": "Leanna, Jr, George Morris",
            "Address": "4206 Rapture Drive",
            "City/State/ZIP": "Batavia, OH 45103",
            "City": "Batavia",
            "State": "OH",
            "Zip": "45103"
        },
        "fiduciary_info": {
            "Fiduciary 1": "Carr, Sean P",
            "Address": "708 Walnut Street",
            "City/State/ZIP": "600",
            "City": "600",
            "State": "",
            "Zip": null
        }
    },
    {
        "case_number": "2024 ES 00373",
        "decedent_info": {
            "Decedent": "Swisshelm, Beverly",
            "Address": "4236 Muscovy Lane",
            "City/State/ZIP": "Batavia, OH 45103",
            "City": "Batavia",
            "State": "OH",
            "Zip": "45103"
        },
        "fiduciary_info": {
            "Fiduciary 1": "Swisshelm, Terry",
            "Address": "4236 Muscovy Lane",
            "City/State/ZIP": "Batavia, OH 45103",
            "City": "Batavia",
            "State": "OH",
            "Zip": "45103"
        }
    },
    {
        "case_number": "2024 ES 00374",
        "decedent_info": {
            "Decedent": "Mowery, Donald Lee",
            "Address": "5371 South Milford Drive",
            "City/State/ZIP": "Milford, OH 45150",
            "City": "Milford",
            "State": "OH",
            "Zip": "45150"
        },
        "fiduciary_info": {
            "Fiduciary 1": "Mowery, Jr, Donald Lee",
            "Address": "2458 Riverside Drive #2",
            "City/State/ZIP": "Cincinnati, OH 45202",
            "City": "Cincinnati",
            "State": "OH",
            "Zip": "45202"
        }
    },
    {
        "case_number": "2024 ES 00376",
        "decedent_info": {
            "Decedent": "Hance, Mercedes",
            "Address": "809 Riverside Dr.",
            "City/State/ZIP": "Milford, OH 45150",
            "City": "Milford",
            "State": "OH",
            "Zip": "45150"
        },
        "fiduciary_info": {
            "Fiduciary 1": "Michael Minniear",
            "Address": "626 Main Street",
            "City/State/ZIP": "Milford, OH 45150",
            "City": "Milford",
            "State": "OH",
            "Zip": "45150"
        }
    },
    {
        "case_number": "2024 ES 00377",
        "decedent_info": {
            "Decedent": "Cutter, III, Harry B",
            "Address": "225 Cleveland Ave",
            "City/State/ZIP": "Milford, OH 45150",
            "City": "Milford",
            "State": "OH",
            "Zip": "45150"
        },
        "fiduciary_info": {
            "Fiduciary 1": "Cutter, Harry Todd",
            "Address": "8729 Simpson Court",
            "City/State/ZIP": "Mason, OH 45040",
            "City": "Mason",
            "State": "OH",
            "Zip": "45040"
        }
    },
    {
        "case_number": "2024 ES 00378",
        "decedent_info": {
            "Decedent": "McDonald, Amber L.",
            "Address": "4150 James Drive",
            "City/State/ZIP": "Amelia, OH 45245",
            "City": "Amelia",
            "State": "OH",
            "Zip": "45245"
        },
        "fiduciary_info": {
            "Fiduciary 1": "McDonald, Deborah",
            "Address": "204 North Street",
            "City/State/ZIP": "Batavia, OH 45103",
            "City": "Batavia",
            "State": "OH",
            "Zip": "45103"
        }
    },
    {
        "case_number": "2024 ES 00381",
        "decedent_info": {
            "Decedent": "Ciafardini, Nicholas Peter",
            "Address": "4286 Beechmont Drive",
            "City/State/ZIP": "Cincinnati, OH 45244",
            "City": "Cincinnati",
            "State": "OH",
            "Zip": "45244"
        },
        "fiduciary_info": {
            "Fiduciary 1": "White, Peggy",
            "Address": "468 N. Gensen Loop",
            "City/State/ZIP": "Cincinnati, OH 45245",
            "City": "Cincinnati",
            "State": "OH",
            "Zip": "45245"
        }
    },
    {
        "case_number": "2024 ES 00383",
        "decedent_info": {
            "Decedent": "VanderMolen, Nicholas Michael",
            "Address": "6110 Oakbridge Way Apt 301",
            "City/State/ZIP": "Milford, OH 45150",
            "City": "Milford",
            "State": "OH",
            "Zip": "45150"
        },
        "fiduciary_info": {
            "Fiduciary 1": "VanderMolen, Michael J",
            "Address": "10208 Stapleford Manor",
            "City/State/ZIP": "Loveland, OH 45140",
            "City": "Loveland",
            "State": "OH",
            "Zip": "45140"
        }
    },
    {
        "case_number": "2024 ES 00384",
        "decedent_info": {
            "Decedent": "Ross, Wilmon L.",
            "Address": "6264 Hollow Wood Circle",
            "City/State/ZIP": "Loveland, OH 45140",
            "City": "Loveland",
            "State": "OH",
            "Zip": "45140"
        },
        "fiduciary_info": {
            "Fiduciary 1": "Ross, Wilmon H.",
            "Address": "6264 Hollow Wood Circle",
            "City/State/ZIP": "Loveland, OH 45140",
            "City": "Loveland",
            "State": "OH",
            "Zip": "45140"
        }
    },
    {
        "case_number": "2024 ES 00388",
        "decedent_info": {
            "Decedent": "Campbell, Myrtle Naoma",
            "Address": "5209 Woodtop Drive",
            "City/State/ZIP": "Loveland, OH 45140",
            "City": "Loveland",
            "State": "OH",
            "Zip": "45140"
        },
        "fiduciary_info": {
            "Fiduciary 1": "Campbell, Coy Ralph",
            "Address": "3507 Whispering Brook",
            "City/State/ZIP": "Kingwood, TX 77345",
            "City": "Kingwood",
            "State": "TX",
            "Zip": "77345"
        }
    },
    {
        "case_number": "2024 ES 00389",
        "decedent_info": {
            "Decedent": "Riley, Jennifer Nicole",
            "Address": "3172 Lindale-Mount Holly Road",
            "City/State/ZIP": "Amelia, OH 45102",
            "City": "Amelia",
            "State": "OH",
            "Zip": "45102"
        },
        "fiduciary_info": {
            "Fiduciary 1": "Riley, Jr, Markham Wilson",
            "Address": "3172 Lindale Mt Holly",
            "City/State/ZIP": "Amelia, OH 45102",
            "City": "Amelia",
            "State": "OH",
            "Zip": "45102"
        }
    },
    {
        "case_number": "2024 ES 00390",
        "decedent_info": {
            "Decedent": "Moody, Henrietta",
            "Address": "2457 State Route 131",
            "City/State/ZIP": "Goshen, OH 45122",
            "City": "Goshen",
            "State": "OH",
            "Zip": "45122"
        },
        "fiduciary_info": {
            "Fiduciary 1": "Guevremont, Seyairra",
            "Address": "2457 State Route 131",
            "City/State/ZIP": "Goshen, OH 45122",
            "City": "Goshen",
            "State": "OH",
            "Zip": "45122"
        }
    },
    {
        "case_number": "2024 ES 00391",
        "decedent_info": {
            "Decedent": "Hoefler, Diana Lynn",
            "Address": "935 Old US Hwy 52",
            "City/State/ZIP": "New Richmond, OH 45157",
            "City": "New Richmond",
            "State": "OH",
            "Zip": "45157"
        },
        "fiduciary_info": {
            "Fiduciary 1": "Hamilton, Jessica",
            "Address": "1045 Klondyke Road",
            "City/State/ZIP": "Milford, OH 45150",
            "City": "Milford",
            "State": "OH",
            "Zip": "45150"
        }
    },
    {
        "case_number": "2024 ES 00392",
        "decedent_info": {
            "Decedent": "Smith, Wallace",
            "Address": "6521 Branch Hill-Guinea Road",
            "City/State/ZIP": "Loveland, OH 45140",
            "City": "Loveland",
            "State": "OH",
            "Zip": "45140"
        },
        "fiduciary_info": {
            "Fiduciary 1": "Smith, Lyle Anthony",
            "Address": "6221 Branch Hill-Guinea Road",
            "City/State/ZIP": "Loveland, OH 45140",
            "City": "Loveland",
            "State": "OH",
            "Zip": "45140"
        }
    },
    {
        "case_number": "2024 ES 00398",
        "decedent_info": {
            "Decedent": "Fields, Walker",
            "Address": "141 S. Broadway Street",
            "City/State/ZIP": "Williamsburg, OH 45176",
            "City": "Williamsburg",
            "State": "OH",
            "Zip": "45176"
        },
        "fiduciary_info": {
            "Fiduciary 1": "Lindsey, Linda",
            "Address": "3712 Bootjack Corner Road",
            "City/State/ZIP": "Williamsburg, OH 45176",
            "City": "Williamsburg",
            "State": "OH",
            "Zip": "45176"
        }
    },
    {
        "case_number": "2024 ES 00399",
        "decedent_info": {
            "Decedent": "Robbers, Spencer",
            "Address": "609 Terrace View Dr.",
            "City/State/ZIP": "Cincinnati, OH 45255",
            "City": "Cincinnati",
            "State": "OH",
            "Zip": "45255"
        },
        "fiduciary_info": {
            "Fiduciary 1": "Robbers, Melissa Kay",
            "Address": "609 Terrace View Drive",
            "City/State/ZIP": "Cincinnati, OH 45255",
            "City": "Cincinnati",
            "State": "OH",
            "Zip": "45255"
        }
    },
    {
        "case_number": "2024 ES 00401",
        "decedent_info": {
            "Decedent": "Emmel, Carol A",
            "Address": "4612 Stablehand Drive",
            "City/State/ZIP": "Batavia, OH 45103",
            "City": "Batavia",
            "State": "OH",
            "Zip": "45103"
        },
        "fiduciary_info": {
            "Fiduciary 1": "Emmel, Steven A",
            "Address": "1506 Pullan Avenue Apt 3",
            "City/State/ZIP": "Cincinnati, OH 45223",
            "City": "Cincinnati",
            "State": "OH",
            "Zip": "45223"
        }
    },
    {
        "case_number": "2024 ES 00402",
        "decedent_info": {
            "Decedent": "Daley, Rebecca A.",
            "Address": "4019 Windsong Court",
            "City/State/ZIP": "Amelia, OH 45102",
            "City": "Amelia",
            "State": "OH",
            "Zip": "45102"
        },
        "fiduciary_info": {
            "Fiduciary 1": "Fite, Patricia A.",
            "Address": null,
            "City/State/ZIP": null,
            "City": null,
            "State": null,
            "Zip": null
        }
    },
    {
        "case_number": "2024 ES 00404",
        "decedent_info": {
            "Decedent": "Carnahan, Donna Elaine",
            "Address": "265 Mulberry Street Apt 1",
            "City/State/ZIP": "Felicity, OH 45120",
            "City": "Felicity",
            "State": "OH",
            "Zip": "45120"
        },
        "fiduciary_info": {
            "Fiduciary 1": "Johnson, Jennifer",
            "Address": "2096 Natchez Trace",
            "City/State/ZIP": "Batavia, OH 45103",
            "City": "Batavia",
            "State": "OH",
            "Zip": "45103"
        }
    },
    {
        "case_number": "2024 ES 00405",
        "decedent_info": {
            "Decedent": "McTernan, Thomas F",
            "Address": "4300 Gleneste Withamsville Road",
            "City/State/ZIP": "Cincinnati, OH 45245",
            "City": "Cincinnati",
            "State": "OH",
            "Zip": "45245"
        },
        "fiduciary_info": {
            "Fiduciary 1": "Broscheid, Kelly",
            "Address": "5448 Hollyridge Court",
            "City/State/ZIP": "Taylor Mill, KY 41015",
            "City": "Taylor Mill",
            "State": "KY",
            "Zip": "41015"
        }
    },
    {
        "case_number": "2024 ES 00407",
        "decedent_info": {
            "Decedent": "Davis, James L",
            "Address": "2987 S.R. 133",
            "City/State/ZIP": "Bethel, OH 45106",
            "City": "Bethel",
            "State": "OH",
            "Zip": "45106"
        },
        "fiduciary_info": {
            "Fiduciary 1": "Sharp, Marie A",
            "Address": "2617 Ireton Trees Rd.",
            "City/State/ZIP": "Moscow, OH 45153",
            "City": "Moscow",
            "State": "OH",
            "Zip": "45153"
        }
    },
    {
        "case_number": "2024 ES 00414",
        "decedent_info": {
            "Decedent": "Gustin, Robert R",
            "Address": "5725 Cromley Dr.",
            "City/State/ZIP": "Milford, OH 45150",
            "City": "Milford",
            "State": "OH",
            "Zip": "45150"
        },
        "fiduciary_info": {
            "Fiduciary 1": "Gustin, Tony",
            "Address": "6557 Hollow Lane",
            "City/State/ZIP": "Loveland, OH 45140",
            "City": "Loveland",
            "State": "OH",
            "Zip": "45140"
        }
    },
    {
        "case_number": "2024 ES 00415",
        "decedent_info": {
            "Decedent": "Reid, William A",
            "Address": "310 Sunset Drive",
            "City/State/ZIP": "Bethel, OH 45106",
            "City": "Bethel",
            "State": "OH",
            "Zip": "45106"
        },
        "fiduciary_info": {
            "Fiduciary 1": "Paul, Dawn",
            "Address": "309 Sunset Drive",
            "City/State/ZIP": "Bethel, OH 45106",
            "City": "Bethel",
            "State": "OH",
            "Zip": "45106"
        }
    },
    {
        "case_number": "2024 ES 00416",
        "decedent_info": {
            "Decedent": "Biggs, Yvonne D",
            "Address": "3009 Sugartree Road",
            "City/State/ZIP": "Bethel, OH 45106",
            "City": "Bethel",
            "State": "OH",
            "Zip": "45106"
        },
        "fiduciary_info": {
            "Fiduciary 1": "Camden, Christine D",
            "Address": "4614 Brookview Drive",
            "City/State/ZIP": "Batavia, OH 45103",
            "City": "Batavia",
            "State": "OH",
            "Zip": "45103"
        }
    },
    {
        "case_number": "2024 ES 00417",
        "decedent_info": {
            "Decedent": "Curry, Peggy L",
            "Address": "1078 Rainbow Trail",
            "City/State/ZIP": "Milford, OH 45150",
            "City": "Milford",
            "State": "OH",
            "Zip": "45150"
        },
        "fiduciary_info": {
            "Fiduciary 1": "Curry, W Michael",
            "Address": "1078 Rainbow Trail",
            "City/State/ZIP": "Milford, OH 45150",
            "City": "Milford",
            "State": "OH",
            "Zip": "45150"
        }
    },
    {
        "case_number": "2024 ES 00418",
        "decedent_info": {
            "Decedent": "Abernathy, Janice R.",
            "Address": "5900 Meadowcreek Drive",
            "City/State/ZIP": "Milford, OH 45150",
            "City": "Milford",
            "State": "OH",
            "Zip": "45150"
        },
        "fiduciary_info": {
            "Fiduciary 1": "Fricke, Brennan",
            "Address": "1064 Oakwood Court",
            "City/State/ZIP": "Unit 3",
            "City": "Unit 3",
            "State": "",
            "Zip": null
        }
    },
    {
        "case_number": "2024 ES 00419",
        "decedent_info": {
            "Decedent": "Bennett, Tina Louise",
            "Address": "4168 Mount Carmel Tobasco Road Apt 5",
            "City/State/ZIP": "Cincinnati, OH 45255",
            "City": "Cincinnati",
            "State": "OH",
            "Zip": "45255"
        },
        "fiduciary_info": {
            "Fiduciary 1": "Benjamin, Larina S",
            "Address": "6707 N Pole Road",
            "City/State/ZIP": "Ripley, OH 45167",
            "City": "Ripley",
            "State": "OH",
            "Zip": "45167"
        }
    },
    {
        "case_number": "2024 ES 00420",
        "decedent_info": {
            "Decedent": "Mason, Sr, Larry E",
            "Address": "674 Hobby Horse Lane",
            "City/State/ZIP": "Milford, OH 45150",
            "City": "Milford",
            "State": "OH",
            "Zip": "45150"
        },
        "fiduciary_info": {
            "Fiduciary 1": "Mason, Kenneth A",
            "Address": "2049 Harcourt Estates Drive",
            "City/State/ZIP": "Cincinnati, OH 45244",
            "City": "Cincinnati",
            "State": "OH",
            "Zip": "45244"
        }
    },
    {
        "case_number": "2024 ES 00424",
        "decedent_info": {
            "Decedent": "Burt, Wesley K",
            "Address": "4464 Forest Trail",
            "City/State/ZIP": "Cincinnati, OH 45244",
            "City": "Cincinnati",
            "State": "OH",
            "Zip": "45244"
        },
        "fiduciary_info": {
            "Fiduciary 1": "Burt, Brian",
            "Address": "677 Frank Young Road",
            "City/State/ZIP": "West Union, OH 45693",
            "City": "West Union",
            "State": "OH",
            "Zip": "45693"
        }
    },
    {
        "case_number": "2024 ES 00426",
        "decedent_info": {
            "Decedent": "Long, Robert D",
            "Address": "1440 Nauticus Cove",
            "City/State/ZIP": "Loveland, OH 45140",
            "City": "Loveland",
            "State": "OH",
            "Zip": "45140"
        },
        "fiduciary_info": {
            "Fiduciary 1": "Long, Mark R",
            "Address": "1444 Nauticus Cove",
            "City/State/ZIP": "Loveland, OH 45140",
            "City": "Loveland",
            "State": "OH",
            "Zip": "45140"
        }
    },
    {
        "case_number": "2024 ES 00427",
        "decedent_info": {
            "Decedent": "Sedam, Georgeanna D.",
            "Address": "591 Hamblin Drive",
            "City/State/ZIP": "Cincinnati, OH 45255",
            "City": "Cincinnati",
            "State": "OH",
            "Zip": "45255"
        },
        "fiduciary_info": {
            "Fiduciary 1": "Sedam, Jr, Jack C",
            "Address": "591 Hamblin Drive",
            "City/State/ZIP": "Cincinnati, OH 45255",
            "City": "Cincinnati",
            "State": "OH",
            "Zip": "45255"
        }
    },
    {
        "case_number": "2024 ES 00428",
        "decedent_info": {
            "Decedent": "Vorwerck, Jr, John Edwin",
            "Address": "1302 Deblin Dr.",
            "City/State/ZIP": "Milford, OH 45150",
            "City": "Milford",
            "State": "OH",
            "Zip": "45150"
        },
        "fiduciary_info": {
            "Fiduciary 1": "Larkin, Andrew S",
            "Address": "5636 Bridgetown Road",
            "City/State/ZIP": "Cincinnati, OH 45248",
            "City": "Cincinnati",
            "State": "OH",
            "Zip": "45248"
        }
    },
    {
        "case_number": "2024 ES 00430",
        "decedent_info": {
            "Decedent": "Tatum, Jack Milton",
            "Address": "200 University Lane, Apt. 209",
            "City/State/ZIP": "Batavia, OH 45103",
            "City": "Batavia",
            "State": "OH",
            "Zip": "45103"
        },
        "fiduciary_info": {
            "Fiduciary 1": "Tatum, Joshua N",
            "Address": "300 Ashland Rd.",
            "City/State/ZIP": "Mansfield, OH 44905",
            "City": "Mansfield",
            "State": "OH",
            "Zip": "44905"
        }
    },
    {
        "case_number": "2024 ES 00344",
        "decedent_info": {
            "Decedent": "Clark, Carl B",
            "Address": "6680 Garrison-Spurling Rd.",
            "City/State/ZIP": "Pleasant Plain, OH 45162",
            "City": "Pleasant Plain",
            "State": "OH",
            "Zip": "45162"
        },
        "fiduciary_info": {
            "Fiduciary 1": "Clark, Carl G",
            "Address": "4888 Colony Square Dr.",
            "City/State/ZIP": "Independence, KY 41051",
            "City": "Independence",
            "State": "KY",
            "Zip": "41051"
        }
    },
    {
        "case_number": "2024 ES 00437",
        "decedent_info": {
            "Decedent": "Tometich, Richard J",
            "Address": "3801 Misty Meadow Lane",
            "City/State/ZIP": "Amelia, OH 45102",
            "City": "Amelia",
            "State": "OH",
            "Zip": "45102"
        },
        "fiduciary_info": {
            "Fiduciary 1": "Hagen, Diana",
            "Address": "1423 Grand Oaks Drive",
            "City/State/ZIP": "Cincinnati, OH 45255",
            "City": "Cincinnati",
            "State": "OH",
            "Zip": "45255"
        }
    },
    {
        "case_number": "2024 ES 00438",
        "decedent_info": {
            "Decedent": "Cowperthwaite, William James",
            "Address": "588 Berdale Lane",
            "City/State/ZIP": "Cincinnati, OH 45244",
            "City": "Cincinnati",
            "State": "OH",
            "Zip": "45244"
        },
        "fiduciary_info": {
            "Fiduciary 1": "Cowperthwaite, Michael J",
            "Address": "4439 Springfield Court",
            "City/State/ZIP": "Batavia, OH 45103",
            "City": "Batavia",
            "State": "OH",
            "Zip": "45103"
        }
    },
    {
        "case_number": "2024 ES 00439",
        "decedent_info": {
            "Decedent": "Grant, Charles D",
            "Address": "5552 Bucktown Rd.",
            "City/State/ZIP": "Williamsburg, OH 45176",
            "City": "Williamsburg",
            "State": "OH",
            "Zip": "45176"
        },
        "fiduciary_info": {
            "Fiduciary 1": "Grant, Frances Ellen",
            "Address": "5552 Bucktown Rd.",
            "City/State/ZIP": "Williamsburg, OH 45176",
            "City": "Williamsburg",
            "State": "OH",
            "Zip": "45176"
        }
    },
    {
        "case_number": "2024 ES 00440",
        "decedent_info": {
            "Decedent": "Welling, Reba R",
            "Address": "166 North 4th St.",
            "City/State/ZIP": "Williamsburg, OH 45176",
            "City": "Williamsburg",
            "State": "OH",
            "Zip": "45176"
        },
        "fiduciary_info": {
            "Fiduciary 1": "Johnson, Sharron Beverley",
            "Address": "3095 Brandi Lane",
            "City/State/ZIP": "Bethel, OH 45106",
            "City": "Bethel",
            "State": "OH",
            "Zip": "45106"
        }
    },
    {
        "case_number": "2024 ES 00442",
        "decedent_info": {
            "Decedent": "Fix, Patricia K",
            "Address": "5057 State Route 133",
            "City/State/ZIP": "Batavia, OH 45103",
            "City": "Batavia",
            "State": "OH",
            "Zip": "45103"
        },
        "fiduciary_info": {
            "Fiduciary 1": "Fix, Andrew S",
            "Address": "102 St Andrews Circle",
            "City/State/ZIP": "Milford, OH 45150",
            "City": "Milford",
            "State": "OH",
            "Zip": "45150"
        }
    },
    {
        "case_number": "2024 ES 00443",
        "decedent_info": {
            "Decedent": "Shebell, Darren P",
            "Address": "552 Aspen Glenn Drive #910",
            "City/State/ZIP": "Cincinnati, OH 45244",
            "City": "Cincinnati",
            "State": "OH",
            "Zip": "45244"
        },
        "fiduciary_info": {
            "Fiduciary 1": "Paul J. Kellogg",
            "Address": "9521 Montgomery Road",
            "City/State/ZIP": "Cincinnati, OH 45242",
            "City": "Cincinnati",
            "State": "OH",
            "Zip": "45242"
        }
    },
    {
        "case_number": "2024 ES 00444",
        "decedent_info": {
            "Decedent": "Lowell, Thelma E",
            "Address": "4712 Beechwood Road Apt #4",
            "City/State/ZIP": "Cincinnati, OH 45244",
            "City": "Cincinnati",
            "State": "OH",
            "Zip": "45244"
        },
        "fiduciary_info": {
            "Fiduciary 1": "Koch, Ronald J",
            "Address": "260 Sumption Drive",
            "City/State/ZIP": "Columbus, OH 43230",
            "City": "Columbus",
            "State": "OH",
            "Zip": "43230"
        }
    },
    {
        "case_number": "2024 ES 00357",
        "decedent_info": {
            "Decedent": "Shouse, Michael",
            "Address": "400 TechneCenter Drive",
            "City/State/ZIP": "Milford, OH 45150",
            "City": "Milford",
            "State": "OH",
            "Zip": "45150"
        },
        "fiduciary_info": {
            "Fiduciary 1": "Charles F Rogers",
            "Address": "400 TechneCenter Drive",
            "City/State/ZIP": "Suite 400",
            "City": "Suite 400",
            "State": "",
            "Zip": null
        }
    },
    {
        "case_number": "2024 ES 00448",
        "decedent_info": {
            "Decedent": "Gillings, Melissa Kay",
            "Address": "2216 Harmony Court",
            "City/State/ZIP": "Batavia, OH 45103",
            "City": "Batavia",
            "State": "OH",
            "Zip": "45103"
        },
        "fiduciary_info": {
            "Fiduciary 1": "Gillings, William C",
            "Address": "2216 Harmony Court",
            "City/State/ZIP": "Batavia, OH 45103",
            "City": "Batavia",
            "State": "OH",
            "Zip": "45103"
        }
    },
    {
        "case_number": "2024 ES 00449",
        "decedent_info": {
            "Decedent": "Stein, Waltraut",
            "Address": "4765 Olive Branch Stonelick Road",
            "City/State/ZIP": "Batavia, OH 45103",
            "City": "Batavia",
            "State": "OH",
            "Zip": "45103"
        },
        "fiduciary_info": {
            "Fiduciary 1": "Wilhelm, Rosietha S.",
            "Address": "4729 Crooked Nail Lane",
            "City/State/ZIP": "Batavia, OH 45103",
            "City": "Batavia",
            "State": "OH",
            "Zip": "45103"
        }
    },
    {
        "case_number": "2024 ES 00450",
        "decedent_info": {
            "Decedent": "Carroll, Pamela A",
            "Address": "5025 State Route 132",
            "City/State/ZIP": "Batavia, OH 45103",
            "City": "Batavia",
            "State": "OH",
            "Zip": "45103"
        },
        "fiduciary_info": {
            "Fiduciary 1": "Gray, Nancy E",
            "Address": "41 Orchard Knoll Drive",
            "City/State/ZIP": "Reading, OH 45215",
            "City": "Reading",
            "State": "OH",
            "Zip": "45215"
        }
    },
    {
        "case_number": "2024 ES 00452",
        "decedent_info": {
            "Decedent": "Trammell, Larry D",
            "Address": "801 Richey Road",
            "City/State/ZIP": "Felicity, OH 45120",
            "City": "Felicity",
            "State": "OH",
            "Zip": "45120"
        },
        "fiduciary_info": {
            "Fiduciary 1": "Trammell, Randy D",
            "Address": "2177 Flaxen Court",
            "City/State/ZIP": "Cincinnati, OH 45244",
            "City": "Cincinnati",
            "State": "OH",
            "Zip": "45244"
        }
    },
    {
        "case_number": "2024 ES 00458",
        "decedent_info": {
            "Decedent": "Shepherd, Amy Jean",
            "Address": "1149 Richey Road",
            "City/State/ZIP": "Felicity, OH 45120",
            "City": "Felicity",
            "State": "OH",
            "Zip": "45120"
        },
        "fiduciary_info": {
            "Fiduciary 1": "Shepherd, Jr, Robert L",
            "Address": "1149 Richey Road",
            "City/State/ZIP": "Felicity, OH 45120",
            "City": "Felicity",
            "State": "OH",
            "Zip": "45120"
        }
    },
    {
        "case_number": "2024 ES 00459",
        "decedent_info": {
            "Decedent": "Christman, Toni L",
            "Address": "969 State Route 28, Lot 139",
            "City/State/ZIP": "Milford, OH 45150",
            "City": "Milford",
            "State": "OH",
            "Zip": "45150"
        },
        "fiduciary_info": {
            "Fiduciary 1": "Christman, Laura",
            "Address": "969 State Route 28, Lot 139",
            "City/State/ZIP": "Milford, OH 45150",
            "City": "Milford",
            "State": "OH",
            "Zip": "45150"
        }
    },
    {
        "case_number": "2024 ES 00461",
        "decedent_info": {
            "Decedent": "Back, Meredith P",
            "Address": "4301 Amelia Olive Branch Rd.",
            "City/State/ZIP": "Amelia, OH 45102",
            "City": "Amelia",
            "State": "OH",
            "Zip": "45102"
        },
        "fiduciary_info": {
            "Fiduciary 1": "Hartley , Melanie S",
            "Address": "1994 East Concord Road",
            "City/State/ZIP": "Amelia, OH 45102",
            "City": "Amelia",
            "State": "OH",
            "Zip": "45102"
        }
    },
    {
        "case_number": "2024 ES 00371",
        "decedent_info": {
            "Decedent": "Roark, Helen",
            "Address": "403 Fourth Street",
            "City/State/ZIP": "Moscow, OH 45153",
            "City": "Moscow",
            "State": "OH",
            "Zip": "45153"
        },
        "fiduciary_info": {
            "Fiduciary 1": "Roark, Wesley Steven",
            "Address": "69 Elizabeth Street P O Box 117",
            "City/State/ZIP": "Moscow, OH 45153",
            "City": "Moscow",
            "State": "OH",
            "Zip": "45153"
        }
    },
    {
        "case_number": "2024 ES 00465",
        "decedent_info": {
            "Decedent": "Strobel, Thomas Arthur",
            "Address": "4150 Mt Carmel Tobasco Road #584",
            "City/State/ZIP": "Cincinnati, OH 45255",
            "City": "Cincinnati",
            "State": "OH",
            "Zip": "45255"
        },
        "fiduciary_info": {
            "Fiduciary 1": "Strobel, Sheila",
            "Address": "4150 Mt Carmel Tobasco Road Unit 584",
            "City/State/ZIP": "Cincinnati, OH 45255",
            "City": "Cincinnati",
            "State": "OH",
            "Zip": "45255"
        }
    },
    {
        "case_number": "2024 ES 00466",
        "decedent_info": {
            "Decedent": "Emmich, Linda S",
            "Address": "636 Holiday Drive",
            "City/State/ZIP": "Cincinnati, OH 45245",
            "City": "Cincinnati",
            "State": "OH",
            "Zip": "45245"
        },
        "fiduciary_info": {
            "Fiduciary 1": "Emmich, Stephanie",
            "Address": "636 Holiday Drive",
            "City/State/ZIP": "Cincinnati, OH 45245",
            "City": "Cincinnati",
            "State": "OH",
            "Zip": "45245"
        }
    },
    {
        "case_number": "2024 ES 00468",
        "decedent_info": {
            "Decedent": "Alonzo, Gisela Parzl",
            "Address": "904 Old Course Lane",
            "City/State/ZIP": "Cincinnati, OH 45245",
            "City": "Cincinnati",
            "State": "OH",
            "Zip": "45245"
        },
        "fiduciary_info": {
            "Fiduciary 1": "LaRuffa, Angela",
            "Address": "3833 Arbor Green Drive",
            "City/State/ZIP": "Cincinnati, OH 45255",
            "City": "Cincinnati",
            "State": "OH",
            "Zip": "45255"
        }
    },
    {
        "case_number": "2024 ES 00469",
        "decedent_info": {
            "Decedent": "Johnson, Brenda Lou",
            "Address": "2177 Old State Rt. 32",
            "City/State/ZIP": "Batavia, OH 45103",
            "City": "Batavia",
            "State": "OH",
            "Zip": "45103"
        },
        "fiduciary_info": {
            "Fiduciary 1": "Johnson, Jr, Jack",
            "Address": "6386 Charles Snider Road",
            "City/State/ZIP": "Loveland, OH 45140",
            "City": "Loveland",
            "State": "OH",
            "Zip": "45140"
        }
    },
    {
        "case_number": "2024 ES 00470",
        "decedent_info": {
            "Decedent": "McDowell, Anthony Wayne",
            "Address": "2191 St. Rt. 125 Lot #33",
            "City/State/ZIP": "Amelia, OH 45102",
            "City": "Amelia",
            "State": "OH",
            "Zip": "45102"
        },
        "fiduciary_info": {
            "Fiduciary 1": "Turnmyre, Kimberly Lynn",
            "Address": "2191 State Route 125 #33",
            "City/State/ZIP": "Amelia, OH 45102",
            "City": "Amelia",
            "State": "OH",
            "Zip": "45102"
        }
    },
    {
        "case_number": "2024 ES 00472",
        "decedent_info": {
            "Decedent": "Sears, Robin Lee",
            "Address": "122 Madison Park Drive",
            "City/State/ZIP": "Batavia, OH 45103",
            "City": "Batavia",
            "State": "OH",
            "Zip": "45103"
        },
        "fiduciary_info": {
            "Fiduciary 1": "Sears, Rob Lee",
            "Address": "122 Madison Park Drive",
            "City/State/ZIP": "Batavia, OH 45103",
            "City": "Batavia",
            "State": "OH",
            "Zip": "45103"
        }
    },
    {
        "case_number": "2024 ES 00473",
        "decedent_info": {
            "Decedent": "DiDonato, Robert A.",
            "Address": "4008 Windsong Court",
            "City/State/ZIP": "Amelia, OH 45102",
            "City": "Amelia",
            "State": "OH",
            "Zip": "45102"
        },
        "fiduciary_info": {
            "Fiduciary 1": "DiDonato, John",
            "Address": "54 San Rafael Court",
            "City/State/ZIP": "East Amherst, NY 14051",
            "City": "East Amherst",
            "State": "NY",
            "Zip": "14051"
        }
    },
    {
        "case_number": "2024 ES 00474",
        "decedent_info": {
            "Decedent": "Gregory, Josephine",
            "Address": "2120 State Route 286",
            "City/State/ZIP": "Williamsburg, OH 45176",
            "City": "Williamsburg",
            "State": "OH",
            "Zip": "45176"
        },
        "fiduciary_info": {
            "Fiduciary 1": "Gregory, Alan",
            "Address": "2120 State Route 286",
            "City/State/ZIP": "Williamsburg, OH 45176",
            "City": "Williamsburg",
            "State": "OH",
            "Zip": "45176"
        }
    },
    {
        "case_number": "2024 ES 00475",
        "decedent_info": {
            "Decedent": "Christman, Charles T",
            "Address": "309 Indian View Drive",
            "City/State/ZIP": "Miamiville, OH 45147",
            "City": "Miamiville",
            "State": "OH",
            "Zip": "45147"
        },
        "fiduciary_info": {
            "Fiduciary 1": "Christman, Nathan",
            "Address": "824 Stanford Court",
            "City/State/ZIP": "Trenton, OH 45067",
            "City": "Trenton",
            "State": "OH",
            "Zip": "45067"
        }
    },
    {
        "case_number": "2024 ES 00477",
        "decedent_info": {
            "Decedent": "Glass, Terri A",
            "Address": "4653 Northridge Drive, B",
            "City/State/ZIP": "Batavia, OH 45103",
            "City": "Batavia",
            "State": "OH",
            "Zip": "45103"
        },
        "fiduciary_info": {
            "Fiduciary 1": "Charles F Rogers",
            "Address": "400 TechneCenter Drive\\r\\lSuite 400",
            "City/State/ZIP": "Milford, OH 45150",
            "City": "Milford",
            "State": "OH",
            "Zip": "45150"
        }
    },
    {
        "case_number": "2024 ES 00478",
        "decedent_info": {
            "Decedent": "Lerwill, Arthur",
            "Address": "4583 Blainfield Court",
            "City/State/ZIP": "Batavia, OH 45103",
            "City": "Batavia",
            "State": "OH",
            "Zip": "45103"
        },
        "fiduciary_info": {
            "Fiduciary 1": "Lerwill, Gareth",
            "Address": "45 Coolidge Road",
            "City/State/ZIP": "Arlington, MA 02476",
            "City": "Arlington",
            "State": "MA",
            "Zip": "02476"
        }
    },
    {
        "case_number": "2024 ES 00479",
        "decedent_info": {
            "Decedent": "Napier, Rebecca J.",
            "Address": "379 Wesley Street",
            "City/State/ZIP": "Loveland, OH 45140",
            "City": "Loveland",
            "State": "OH",
            "Zip": "45140"
        },
        "fiduciary_info": {
            "Fiduciary 1": "Charles F Rogers",
            "Address": "400 TechneCenter Drive",
            "City/State/ZIP": "Milford, OH 45150",
            "City": "Milford",
            "State": "OH",
            "Zip": "45150"
        }
    },
    {
        "case_number": "2024 ES 00480",
        "decedent_info": {
            "Decedent": "Deel, Clark R",
            "Address": "5 Pebble Stone Court",
            "City/State/ZIP": "Milford, OH 45150",
            "City": "Milford",
            "State": "OH",
            "Zip": "45150"
        },
        "fiduciary_info": {
            "Fiduciary 1": "Ely, Brenda",
            "Address": "5678 Windsong Lane",
            "City/State/ZIP": "Milford, OH 45150",
            "City": "Milford",
            "State": "OH",
            "Zip": "45150"
        }
    },
    {
        "case_number": "2024 ES 00481",
        "decedent_info": {
            "Decedent": "Warren, Betty J",
            "Address": "3604 Woodview Lane",
            "City/State/ZIP": "Batavia, OH 45103",
            "City": "Batavia",
            "State": "OH",
            "Zip": "45103"
        },
        "fiduciary_info": {
            "Fiduciary 1": "Helbig, Wendelin J",
            "Address": "2562 N 169th Ave",
            "City/State/ZIP": "Goodyear, AZ 85395",
            "City": "Goodyear",
            "State": "AZ",
            "Zip": "85395"
        }
    },
    {
        "case_number": "2024 ES 00482",
        "decedent_info": {
            "Decedent": "Rohs, Carol M",
            "Address": "6060 Windy Hollow Court",
            "City/State/ZIP": "Loveland, OH 45140",
            "City": "Loveland",
            "State": "OH",
            "Zip": "45140"
        },
        "fiduciary_info": {
            "Fiduciary 1": "Hoevener, Laura",
            "Address": "2200 Cemetery Ln",
            "City/State/ZIP": "Goshen, OH 45122",
            "City": "Goshen",
            "State": "OH",
            "Zip": "45122"
        }
    },
    {
        "case_number": "2024 ES 00483",
        "decedent_info": {
            "Decedent": "Strausbaugh, Patrick Mead",
            "Address": "2000 Cameron Crossing",
            "City/State/ZIP": "Loveland, OH 45140",
            "City": "Loveland",
            "State": "OH",
            "Zip": "45140"
        },
        "fiduciary_info": {
            "Fiduciary 1": "Strausbaugh, Toni Kay",
            "Address": "2000 Cameron Crossing",
            "City/State/ZIP": "Loveland, OH 45140",
            "City": "Loveland",
            "State": "OH",
            "Zip": "45140"
        }
    },
    {
        "case_number": "2024 ES 00484",
        "decedent_info": {
            "Decedent": "Jennings, Sam L",
            "Address": "1905 Horatio Street",
            "City/State/ZIP": "Nolanville, TX 76559",
            "City": "Nolanville",
            "State": "TX",
            "Zip": "76559"
        },
        "fiduciary_info": {
            "Fiduciary 1": "Jennings, Eric",
            "Address": "6012 Cook Road",
            "City/State/ZIP": "Milford, OH 45150",
            "City": "Milford",
            "State": "OH",
            "Zip": "45150"
        }
    },
    {
        "case_number": "2024 ES 00485",
        "decedent_info": {
            "Decedent": "Shipley, Nancy Linz",
            "Address": "888 Grays Lane",
            "City/State/ZIP": "New Richmond, OH 45157",
            "City": "New Richmond",
            "State": "OH",
            "Zip": "45157"
        },
        "fiduciary_info": {
            "Fiduciary 1": "Shipley, Brian Paul",
            "Address": "888 Grays Lane",
            "City/State/ZIP": "New Richmond, OH 45157",
            "City": "New Richmond",
            "State": "OH",
            "Zip": "45157"
        }
    },
    {
        "case_number": "2024 ES 00487",
        "decedent_info": {
            "Decedent": "Alcorn, Shirley Joanne",
            "Address": "6725A Smith Road",
            "City/State/ZIP": "Loveland, OH 45140",
            "City": "Loveland",
            "State": "OH",
            "Zip": "45140"
        },
        "fiduciary_info": {
            "Fiduciary 1": "Segelke, Ronald",
            "Address": "2370 Columbia Street",
            "City/State/ZIP": "Lebanon, OH 45036",
            "City": "Lebanon",
            "State": "OH",
            "Zip": "45036"
        }
    },
    {
        "case_number": "2024 ES 00488",
        "decedent_info": {
            "Decedent": "Edgerton, Leslie M",
            "Address": "1484 Twelve Mile Road",
            "City/State/ZIP": "New Richmond, OH 45157",
            "City": "New Richmond",
            "State": "OH",
            "Zip": "45157"
        },
        "fiduciary_info": {
            "Fiduciary 1": "Lucas, Teresa A",
            "Address": "4 Vineyard Ln",
            "City/State/ZIP": "New Richmond, OH 45157",
            "City": "New Richmond",
            "State": "OH",
            "Zip": "45157"
        }
    },
    {
        "case_number": "2024 ES 00489",
        "decedent_info": {
            "Decedent": "Hogg, Bobby Eugene",
            "Address": "6607 Gingham Road",
            "City/State/ZIP": "Loveland, OH 45140",
            "City": "Loveland",
            "State": "OH",
            "Zip": "45140"
        },
        "fiduciary_info": {
            "Fiduciary 1": "Hogg, Donald Wayne",
            "Address": "6607 Gingham Road",
            "City/State/ZIP": "Loveland, OH 45140",
            "City": "Loveland",
            "State": "OH",
            "Zip": "45140"
        }
    },
    {
        "case_number": "2024 ES 00490",
        "decedent_info": {
            "Decedent": "Topazio, Bernadine C.",
            "Address": "6624 Saddlebrook Court",
            "City/State/ZIP": "Loveland, OH 45140",
            "City": "Loveland",
            "State": "OH",
            "Zip": "45140"
        },
        "fiduciary_info": {
            "Fiduciary 1": "Scott, Jamie D",
            "Address": "893 Deer Run Trail",
            "City/State/ZIP": "Lebanon, OH 45036",
            "City": "Lebanon",
            "State": "OH",
            "Zip": "45036"
        }
    },
    {
        "case_number": "2024 ES 00491",
        "decedent_info": {
            "Decedent": "Middleton, Sherry D",
            "Address": "3766 Waterstone",
            "City/State/ZIP": "Amelia, OH 45102",
            "City": "Amelia",
            "State": "OH",
            "Zip": "45102"
        },
        "fiduciary_info": {
            "Fiduciary 1": "Martinez, Stephanie L",
            "Address": "23 Spelling",
            "City/State/ZIP": "Amelia, OH 45102",
            "City": "Amelia",
            "State": "OH",
            "Zip": "45102"
        }
    },
    {
        "case_number": "2024 ES 00492",
        "decedent_info": {
            "Decedent": "Perry, Danny Kay",
            "Address": "2634 Moler Road",
            "City/State/ZIP": "Goshen, OH 45122",
            "City": "Goshen",
            "State": "OH",
            "Zip": "45122"
        },
        "fiduciary_info": {
            "Fiduciary 1": "Perry, Pauline",
            "Address": "2634 Moler Road",
            "City/State/ZIP": "Goshen, OH 45122",
            "City": "Goshen",
            "State": "OH",
            "Zip": "45122"
        }
    },
    {
        "case_number": "2024 ES 00494",
        "decedent_info": {
            "Decedent": "Howard, Arlene Cecile",
            "Address": "3387 Huntsman Trace",
            "City/State/ZIP": "Amelia, OH 45102",
            "City": "Amelia",
            "State": "OH",
            "Zip": "45102"
        },
        "fiduciary_info": {
            "Fiduciary 1": "Howard, Joel",
            "Address": "36 Hunters Court",
            "City/State/ZIP": "Amelia, OH 45102",
            "City": "Amelia",
            "State": "OH",
            "Zip": "45102"
        }
    },
    {
        "case_number": "2024 ES 00495",
        "decedent_info": {
            "Decedent": "Shouse, Jackie",
            "Address": "3692 Spring Grove Rd.",
            "City/State/ZIP": "Bethel, OH 45106",
            "City": "Bethel",
            "State": "OH",
            "Zip": "45106"
        },
        "fiduciary_info": {
            "Fiduciary 1": "Shouse, Tammy",
            "Address": "325 E Main Street",
            "City/State/ZIP": "Hamersville, OH 45130",
            "City": "Hamersville",
            "State": "OH",
            "Zip": "45130"
        }
    },
    {
        "case_number": "2024 ES 00498",
        "decedent_info": {
            "Decedent": "Foster, Dawn Esther",
            "Address": "904 Locust Corner Road",
            "City/State/ZIP": "Cincinnati, OH 45245",
            "City": "Cincinnati",
            "State": "OH",
            "Zip": "45245"
        },
        "fiduciary_info": {
            "Fiduciary 1": "Charles F Rogers",
            "Address": "400 TechneCenter Drive",
            "City/State/ZIP": "Milford, OH 45150",
            "City": "Milford",
            "State": "OH",
            "Zip": "45150"
        }
    },
    {
        "case_number": "2024 ES 00499",
        "decedent_info": {
            "Decedent": "Mefford, David L",
            "Address": "2172 Marylan Drive",
            "City/State/ZIP": "Williamsburg, OH 45176",
            "City": "Williamsburg",
            "State": "OH",
            "Zip": "45176"
        },
        "fiduciary_info": {
            "Fiduciary 1": "Reisinger, Buffy",
            "Address": "13571 Lower Cumberland Road",
            "City/State/ZIP": "Mount Orab, OH 45154",
            "City": "Mount Orab",
            "State": "OH",
            "Zip": "45154"
        }
    },
    {
        "case_number": "2024 ES 00501",
        "decedent_info": {
            "Decedent": "Trago, Evelyn Carol",
            "Address": "11 Whitewater Way",
            "City/State/ZIP": "Milford, OH 45150",
            "City": "Milford",
            "State": "OH",
            "Zip": "45150"
        },
        "fiduciary_info": {
            "Fiduciary 1": "Thompson, Kathleen M.",
            "Address": "11170 Oak St.",
            "City/State/ZIP": "Cincinnati, OH 45241",
            "City": "Cincinnati",
            "State": "OH",
            "Zip": "45241"
        }
    },
    {
        "case_number": "2024 ES 00502",
        "decedent_info": {
            "Decedent": "Sirk, Janet Karen",
            "Address": "658 Brag Salt Run Road",
            "City/State/ZIP": "Cincinnati, OH 45244",
            "City": "Cincinnati",
            "State": "OH",
            "Zip": "45244"
        },
        "fiduciary_info": {
            "Fiduciary 1": "Popil, Crystal M.",
            "Address": "541 Virginia Lane",
            "City/State/ZIP": "Cincinnati, OH 45244",
            "City": "Cincinnati",
            "State": "OH",
            "Zip": "45244"
        }
    },
    {
        "case_number": "2024 ES 00503",
        "decedent_info": {
            "Decedent": "Zwerin, Jack Andrew",
            "Address": "1456 Twin Spires Drive",
            "City/State/ZIP": "Batavia, OH 45103",
            "City": "Batavia",
            "State": "OH",
            "Zip": "45103"
        },
        "fiduciary_info": {
            "Fiduciary 1": "Zwerin, Susan",
            "Address": "1456 Twin Spires Drive",
            "City/State/ZIP": "Batavia, OH 45103",
            "City": "Batavia",
            "State": "OH",
            "Zip": "45103"
        }
    },
    {
        "case_number": "2024 ES 00504",
        "decedent_info": {
            "Decedent": "Petrovich, Hristina",
            "Address": "225 Cleveland Ave",
            "City/State/ZIP": "Milford, OH 45150",
            "City": "Milford",
            "State": "OH",
            "Zip": "45150"
        },
        "fiduciary_info": {
            "Fiduciary 1": "Ljubisavljevic, Nikola",
            "Address": "3609 Center Street",
            "City/State/ZIP": "Cincinnati, OH 45227",
            "City": "Cincinnati",
            "State": "OH",
            "Zip": "45227"
        }
    },
    {
        "case_number": "2024 ES 00505",
        "decedent_info": {
            "Decedent": "Johnson, Jennie B.",
            "Address": "1193 Ten Mile Road",
            "City/State/ZIP": "New Richmond, OH 45157",
            "City": "New Richmond",
            "State": "OH",
            "Zip": "45157"
        },
        "fiduciary_info": {
            "Fiduciary 1": "PNC BANK, N.A.",
            "Address": "201 E. Fifth St.",
            "City/State/ZIP": "Cincinnati, OH 45202",
            "City": "Cincinnati",
            "State": "OH",
            "Zip": "45202"
        }
    },
    {
        "case_number": "2024 ES 00506",
        "decedent_info": {
            "Decedent": "Pavey, Stephanie Louise",
            "Address": "4708 Richey Rd.",
            "City/State/ZIP": "Williamsburg, OH 45176",
            "City": "Williamsburg",
            "State": "OH",
            "Zip": "45176"
        },
        "fiduciary_info": {
            "Fiduciary 1": "Austin, April",
            "Address": "2222 Candlemaker Drive",
            "City/State/ZIP": "Cincinnati, OH 45244",
            "City": "Cincinnati",
            "State": "OH",
            "Zip": "45244"
        }
    },
    {
        "case_number": "2024 ES 00507",
        "decedent_info": {
            "Decedent": "Krimmer, Peter William",
            "Address": "1998 Neville Spur Rd.",
            "City/State/ZIP": "Moscow, OH 45153",
            "City": "Moscow",
            "State": "OH",
            "Zip": "45153"
        },
        "fiduciary_info": {
            "Fiduciary 1": "Krimmer, Susan",
            "Address": "1998 Neville-Spur Road",
            "City/State/ZIP": "Moscow, OH 45153",
            "City": "Moscow",
            "State": "OH",
            "Zip": "45153"
        }
    },
    {
        "case_number": "2024 ES 00509",
        "decedent_info": {
            "Decedent": "Hendricks, Mildred Faye",
            "Address": "934 State Route 28",
            "City/State/ZIP": "Milford, OH 45150",
            "City": "Milford",
            "State": "OH",
            "Zip": "45150"
        },
        "fiduciary_info": {
            "Fiduciary 1": "Hendricks, Danny",
            "Address": "409 Milboro Spring Street",
            "City/State/ZIP": "Batavia, OH 45103",
            "City": "Batavia",
            "State": "OH",
            "Zip": "45103"
        }
    },
    {
        "case_number": "2024 ES 00512",
        "decedent_info": {
            "Decedent": "Pauley, Alvin D.",
            "Address": "6338 Manila Road",
            "City/State/ZIP": "Goshen, OH 45122",
            "City": "Goshen",
            "State": "OH",
            "Zip": "45122"
        },
        "fiduciary_info": {
            "Fiduciary 1": "Rathel, Lynnette",
            "Address": "7489 Mansion Circle",
            "City/State/ZIP": "Unit E",
            "City": "Unit E",
            "State": "",
            "Zip": null
        }
    },
    {
        "case_number": "2024 ES 00513",
        "decedent_info": {
            "Decedent": "Dean, Randy E.",
            "Address": "1755 Cedar Trail",
            "City/State/ZIP": "New Richmond, OH 45157",
            "City": "New Richmond",
            "State": "OH",
            "Zip": "45157"
        },
        "fiduciary_info": {
            "Fiduciary 1": "Chelton, II, Lowell Allen",
            "Address": "44601 Erie County Line Road",
            "City/State/ZIP": "Corry, PA 16407",
            "City": "Corry",
            "State": "PA",
            "Zip": "16407"
        }
    },
    {
        "case_number": "2024 ES 00514",
        "decedent_info": {
            "Decedent": "Rohs, Carol M",
            "Address": "6060 Windy Hollow Court",
            "City/State/ZIP": "Loveland, OH 45140",
            "City": "Loveland",
            "State": "OH",
            "Zip": "45140"
        },
        "fiduciary_info": {
            "Fiduciary 1": "Hoevener, Laura",
            "Address": "2200 Cemetery Ln",
            "City/State/ZIP": "Goshen, OH 45122",
            "City": "Goshen",
            "State": "OH",
            "Zip": "45122"
        }
    },
    {
        "case_number": "2024 ES 00516",
        "decedent_info": {
            "Decedent": "Byrd, Elizabeth",
            "Address": "1776 Josephs Way",
            "City/State/ZIP": "Amelia, OH 45102",
            "City": "Amelia",
            "State": "OH",
            "Zip": "45102"
        },
        "fiduciary_info": {
            "Fiduciary 1": "Byrd, James",
            "Address": "1776 Josephs Way",
            "City/State/ZIP": "Amelia, OH 45102",
            "City": "Amelia",
            "State": "OH",
            "Zip": "45102"
        }
    },
    {
        "case_number": "2024 ES 00517",
        "decedent_info": {
            "Decedent": "Dunford, Carole C",
            "Address": "1826 Louis Lane",
            "City/State/ZIP": "Goshen, OH 45122",
            "City": "Goshen",
            "State": "OH",
            "Zip": "45122"
        },
        "fiduciary_info": {
            "Fiduciary 1": "Ross, Aimee J",
            "Address": "5438 Carterway Drive",
            "City/State/ZIP": "Milford, OH 45150",
            "City": "Milford",
            "State": "OH",
            "Zip": "45150"
        }
    },
    {
        "case_number": "2024 ES 00519",
        "decedent_info": {
            "Decedent": "Burton, Luther Larry Wendell",
            "Address": "6381 Shallowbrook Court",
            "City/State/ZIP": "Loveland, OH 45140",
            "City": "Loveland",
            "State": "OH",
            "Zip": "45140"
        },
        "fiduciary_info": {
            "Fiduciary 1": "Burton, Lindsey Terese",
            "Address": "6381 Shallowbrook Court",
            "City/State/ZIP": "Loveland, OH 45140",
            "City": "Loveland",
            "State": "OH",
            "Zip": "45140"
        }
    },
    {
        "case_number": "2024 ES 00521",
        "decedent_info": {
            "Decedent": "Mosteller, John C",
            "Address": "5757 Lynne Clara",
            "City/State/ZIP": "Milford, OH 45150",
            "City": "Milford",
            "State": "OH",
            "Zip": "45150"
        },
        "fiduciary_info": {
            "Fiduciary 1": "Mosteller, Melissa Ann",
            "Address": "1708 Old Silo Drive",
            "City/State/ZIP": "Loveland, OH 45140",
            "City": "Loveland",
            "State": "OH",
            "Zip": "45140"
        }
    },
    {
        "case_number": "2024 ES 00522",
        "decedent_info": {
            "Decedent": "Dillingham, Martha E",
            "Address": "826 State Route 131 Unit 83",
            "City/State/ZIP": "Milford, OH 45150",
            "City": "Milford",
            "State": "OH",
            "Zip": "45150"
        },
        "fiduciary_info": {
            "Fiduciary 1": "Stephens, Sugail",
            "Address": "815 St Rt 131",
            "City/State/ZIP": "Milford, OH 45150",
            "City": "Milford",
            "State": "OH",
            "Zip": "45150"
        }
    },
    {
        "case_number": "2024 ES 00523",
        "decedent_info": {
            "Decedent": "Dixon, Patricia May",
            "Address": "6011 Marsh Circle",
            "City/State/ZIP": "Loveland, OH 45140",
            "City": "Loveland",
            "State": "OH",
            "Zip": "45140"
        },
        "fiduciary_info": {
            "Fiduciary 1": "Richardson, Shawn",
            "Address": "2515 Canvasback Circle",
            "City/State/ZIP": "Batavia, OH 45103",
            "City": "Batavia",
            "State": "OH",
            "Zip": "45103"
        }
    },
    {
        "case_number": "2024 ES 00524",
        "decedent_info": {
            "Decedent": "Rice, Shellie Sue",
            "Address": "5 Deer Creek",
            "City/State/ZIP": "Amelia, OH 45102",
            "City": "Amelia",
            "State": "OH",
            "Zip": "45102"
        },
        "fiduciary_info": {
            "Fiduciary 1": "Rice, Robert",
            "Address": "1285 Baldwin Road",
            "City/State/ZIP": "Milford, OH 45150",
            "City": "Milford",
            "State": "OH",
            "Zip": "45150"
        }
    },
    {
        "case_number": "2024 ES 00525",
        "decedent_info": {
            "Decedent": "McCracken, Dustin M",
            "Address": "983 983 Business State Route 28",
            "City/State/ZIP": "Milford, OH 45150",
            "City": "Milford",
            "State": "OH",
            "Zip": "45150"
        },
        "fiduciary_info": {
            "Fiduciary 1": "Wilson, Katlyn",
            "Address": "1774 Hill Station Road",
            "City/State/ZIP": "Goshen, OH 45122",
            "City": "Goshen",
            "State": "OH",
            "Zip": "45122"
        }
    },
    {
        "case_number": "2024 ES 00526",
        "decedent_info": {
            "Decedent": "Dalton, Carolyn L",
            "Address": "5515 Bigam Rd.",
            "City/State/ZIP": "Batavia, OH 45103",
            "City": "Batavia",
            "State": "OH",
            "Zip": "45103"
        },
        "fiduciary_info": {
            "Fiduciary 1": "Dalton, Michael W",
            "Address": "5515 Bigam Road",
            "City/State/ZIP": "Batavia, OH 45103",
            "City": "Batavia",
            "State": "OH",
            "Zip": "45103"
        }
    },
    {
        "case_number": "2024 ES 00527",
        "decedent_info": {
            "Decedent": "Baker, Sr, James Dean",
            "Address": "4520 Eastgate Oaks Drive",
            "City/State/ZIP": "Cincinnati, OH 45244",
            "City": "Cincinnati",
            "State": "OH",
            "Zip": "45244"
        },
        "fiduciary_info": {
            "Fiduciary 1": "Tucker, Doug",
            "Address": "7272 Fray Road",
            "City/State/ZIP": "Goshen, OH 45122",
            "City": "Goshen",
            "State": "OH",
            "Zip": "45122"
        }
    },
    {
        "case_number": "2024 ES 00529",
        "decedent_info": {
            "Decedent": "Kelley, Dorothy",
            "Address": "131 Clark Street",
            "City/State/ZIP": "Bethel, OH 45106",
            "City": "Bethel",
            "State": "OH",
            "Zip": "45106"
        },
        "fiduciary_info": {
            "Fiduciary 1": "Broach, Robin Erlene",
            "Address": "1251/2 Clark Street",
            "City/State/ZIP": "Bethel, OH 45106",
            "City": "Bethel",
            "State": "OH",
            "Zip": "45106"
        }
    },
    {
        "case_number": "2024 ES 00531",
        "decedent_info": {
            "Decedent": "Napier, Darrell",
            "Address": "682 Loda Dr.",
            "City/State/ZIP": "Cincinnati, OH 45244",
            "City": "Cincinnati",
            "State": "OH",
            "Zip": "45244"
        },
        "fiduciary_info": {
            "Fiduciary 1": "Napier, Sharon",
            "Address": "682 Loda Dr.",
            "City/State/ZIP": "Cincinnati, OH 45245",
            "City": "Cincinnati",
            "State": "OH",
            "Zip": "45245"
        }
    },
    {
        "case_number": "2024 ES 00533",
        "decedent_info": {
            "Decedent": "Hay, Donal Lee",
            "Address": "3621 S Hopper Ridge Road",
            "City/State/ZIP": "Cincinnati, OH 45255",
            "City": "Cincinnati",
            "State": "OH",
            "Zip": "45255"
        },
        "fiduciary_info": {
            "Fiduciary 1": "Hay, Michael Conrad",
            "Address": "3621 S Hopper Ridge Road",
            "City/State/ZIP": "Cincinnati, OH 45255",
            "City": "Cincinnati",
            "State": "OH",
            "Zip": "45255"
        }
    },
    {
        "case_number": "2024 ES 00535",
        "decedent_info": {
            "Decedent": "Johnson, Sr, Clifford S",
            "Address": "2910 Fair Oak Road",
            "City/State/ZIP": "Amelia, OH 45102",
            "City": "Amelia",
            "State": "OH",
            "Zip": "45102"
        },
        "fiduciary_info": {
            "Fiduciary 1": "Johnson, Cornelia D",
            "Address": "2910 Fair Oak Road",
            "City/State/ZIP": "Amelia, OH 45102",
            "City": "Amelia",
            "State": "OH",
            "Zip": "45102"
        }
    },
    {
        "case_number": "2024 ES 00540",
        "decedent_info": {
            "Decedent": "Archibald, Stephen",
            "Address": "1221 Bethel New Richmond Rd., Apt 171",
            "City/State/ZIP": "New Richmond, OH 45157",
            "City": "New Richmond",
            "State": "OH",
            "Zip": "45157"
        },
        "fiduciary_info": {
            "Fiduciary 1": "Massarella, Nance",
            "Address": "5853 Buckwheat Rd, Apt 25",
            "City/State/ZIP": "Milford, OH 45150",
            "City": "Milford",
            "State": "OH",
            "Zip": "45150"
        }
    },
    {
        "case_number": "2024 ES 00543",
        "decedent_info": {
            "Decedent": "Keith, Ralph",
            "Address": "3646 Lucas Road",
            "City/State/ZIP": "Blanchester, OH 45107.",
            "City": "Blanchester",
            "State": "OH",
            "Zip": "45107."
        },
        "fiduciary_info": {
            "Fiduciary 1": "Benne, Kevin",
            "Address": "64 Old St. Rt. 133",
            "City/State/ZIP": "Blanchester, OH 45107.",
            "City": "Blanchester",
            "State": "OH",
            "Zip": "45107."
        }
    },
    {
        "case_number": "2024 ES 00543",
        "decedent_info": {
            "Decedent": "Keith, Ralph",
            "Address": "3646 Lucas Road",
            "City/State/ZIP": "Blanchester, OH 45107.",
            "City": "Blanchester",
            "State": "OH",
            "Zip": "45107."
        },
        "fiduciary_info": {
            "Fiduciary 1": "Benne, Kevin",
            "Address": "64 Old St. Rt. 133",
            "City/State/ZIP": "Blanchester, OH 45107.",
            "City": "Blanchester",
            "State": "OH",
            "Zip": "45107."
        }
    },
    {
        "case_number": "2024 ES 00545",
        "decedent_info": {
            "Decedent": "Bookbinder, Keith J",
            "Address": "3380 Legendary Trails Dr.",
            "City/State/ZIP": "Cincinnati, OH 45245",
            "City": "Cincinnati",
            "State": "OH",
            "Zip": "45245"
        },
        "fiduciary_info": {
            "Fiduciary 1": "Mason, Maria S",
            "Address": "3380 Legendary Trails Dr.",
            "City/State/ZIP": "Cincinnati, OH 45245",
            "City": "Cincinnati",
            "State": "OH",
            "Zip": "45245"
        }
    },
    {
        "case_number": "2024 ES 00546",
        "decedent_info": {
            "Decedent": "Halbeck, Audrey H",
            "Address": "5877 Wolfpen Pleasant Hill Rd., #236",
            "City/State/ZIP": "Milford, OH 45150",
            "City": "Milford",
            "State": "OH",
            "Zip": "45150"
        },
        "fiduciary_info": {
            "Fiduciary 1": "Halbeck, Paul X",
            "Address": "777 Saturn Dr., Unit 310",
            "City/State/ZIP": "Colorado Springs, CO 80905",
            "City": "Colorado Springs",
            "State": "CO",
            "Zip": "80905"
        }
    },
    {
        "case_number": "2024 ES 00547",
        "decedent_info": {
            "Decedent": "Kriege, Patricia A",
            "Address": "4110 Independence Drive",
            "City/State/ZIP": "Cincinnati, OH 45255",
            "City": "Cincinnati",
            "State": "OH",
            "Zip": "45255"
        },
        "fiduciary_info": {
            "Fiduciary 1": "Martin, Darryl",
            "Address": "1245 Autumnview Drive",
            "City/State/ZIP": "Batavia, OH 45103",
            "City": "Batavia",
            "State": "OH",
            "Zip": "45103"
        }
    },
    {
        "case_number": "2024 ES 00548",
        "decedent_info": {
            "Decedent": "Robinson, James E",
            "Address": "846 Locust Corner Road",
            "City/State/ZIP": "Cincinnati, OH 45245",
            "City": "Cincinnati",
            "State": "OH",
            "Zip": "45245"
        },
        "fiduciary_info": {
            "Fiduciary 1": "Robinson, David",
            "Address": "1600 Mears Avenue",
            "City/State/ZIP": "Cincinnati, OH 45230",
            "City": "Cincinnati",
            "State": "OH",
            "Zip": "45230"
        }
    },
    {
        "case_number": "2024 ES 00549",
        "decedent_info": {
            "Decedent": "Morosky, Jean",
            "Address": "225 Cleveland Ave.",
            "City/State/ZIP": "Milford, OH 45150",
            "City": "Milford",
            "State": "OH",
            "Zip": "45150"
        },
        "fiduciary_info": {
            "Fiduciary 1": "Hammer, Monica",
            "Address": "212 Thorobred Road",
            "City/State/ZIP": "Loveland, OH 45140",
            "City": "Loveland",
            "State": "OH",
            "Zip": "45140"
        }
    },
    {
        "case_number": "2024 ES 00550",
        "decedent_info": {
            "Decedent": "Gower, Maria L",
            "Address": "974 Tarragon Lane",
            "City/State/ZIP": "Milford, OH 45150",
            "City": "Milford",
            "State": "OH",
            "Zip": "45150"
        },
        "fiduciary_info": {
            "Fiduciary 1": "Violette, Judy A",
            "Address": null,
            "City/State/ZIP": null,
            "City": null,
            "State": null,
            "Zip": null
        }
    },
    {
        "case_number": "2024 ES 00552",
        "decedent_info": {
            "Decedent": "Genov, Evgeni",
            "Address": "1363 Nicholas Dr.",
            "City/State/ZIP": "Loveland, OH ",
            "City": "Loveland",
            "State": "OH",
            "Zip": null
        },
        "fiduciary_info": {
            "Fiduciary 1": "Isaac, Aleksandra Ivandva",
            "Address": "6367 Sun Ridge Dr.",
            "City/State/ZIP": "Waynesville, OH 45068",
            "City": "Waynesville",
            "State": "OH",
            "Zip": "45068"
        }
    },
    {
        "case_number": "2024 ES 00553",
        "decedent_info": {
            "Decedent": "Shepler, Steven Harold",
            "Address": "4189 Heritage Glenn Drive",
            "City/State/ZIP": "Cincinnati, OH 45245",
            "City": "Cincinnati",
            "State": "OH",
            "Zip": "45245"
        },
        "fiduciary_info": {
            "Fiduciary 1": "Shepler, Kimberly",
            "Address": "4189 Heritage Glen Drive",
            "City/State/ZIP": "Cincinnati, OH 45245",
            "City": "Cincinnati",
            "State": "OH",
            "Zip": "45245"
        }
    },
    {
        "case_number": "2024 ES 00554",
        "decedent_info": {
            "Decedent": "Nichols, Anna L",
            "Address": "3620 Highland Green",
            "City/State/ZIP": "Cincinnati, OH 45245",
            "City": "Cincinnati",
            "State": "OH",
            "Zip": "45245"
        },
        "fiduciary_info": {
            "Fiduciary 1": "Nichols, Dennis D",
            "Address": "3620 Highland Green",
            "City/State/ZIP": "Cincinnati, OH 45245",
            "City": "Cincinnati",
            "State": "OH",
            "Zip": "45245"
        }
    },
    {
        "case_number": "2024 ES 00555",
        "decedent_info": {
            "Decedent": "Cooper, Joyce K",
            "Address": "2006 Commons Drive",
            "City/State/ZIP": "Batavia, OH 45103",
            "City": "Batavia",
            "State": "OH",
            "Zip": "45103"
        },
        "fiduciary_info": {
            "Fiduciary 1": "Coday, Jessica",
            "Address": "5241 Man O'War Drive",
            "City/State/ZIP": "Morrow, OH 45152",
            "City": "Morrow",
            "State": "OH",
            "Zip": "45152"
        }
    },
    {
        "case_number": "2024 ES 00556",
        "decedent_info": {
            "Decedent": "Butts , Willard",
            "Address": "1851 Carnes Road",
            "City/State/ZIP": "New Richmond, OH 45157",
            "City": "New Richmond",
            "State": "OH",
            "Zip": "45157"
        },
        "fiduciary_info": {
            "Fiduciary 1": "Ward, David",
            "Address": "1851 Carnes Road",
            "City/State/ZIP": "New Richmond, OH 45157",
            "City": "New Richmond",
            "State": "OH",
            "Zip": "45157"
        }
    },
    {
        "case_number": "2024 ES 00557",
        "decedent_info": {
            "Decedent": "Grandfield, Kelly Ann",
            "Address": "6387 Barre Rd.",
            "City/State/ZIP": "Loveland, OH 45140",
            "City": "Loveland",
            "State": "OH",
            "Zip": "45140"
        },
        "fiduciary_info": {
            "Fiduciary 1": "Larkin, Andrew S",
            "Address": "5636 Bridgetown Road",
            "City/State/ZIP": "Cincinnati, OH 45248",
            "City": "Cincinnati",
            "State": "OH",
            "Zip": "45248"
        }
    },
    {
        "case_number": "2024 ES 00560",
        "decedent_info": {
            "Decedent": "Gentil, James F.",
            "Address": "264 Beech Road",
            "City/State/ZIP": "Loveland, OH 45140",
            "City": "Loveland",
            "State": "OH",
            "Zip": "45140"
        },
        "fiduciary_info": {
            "Fiduciary 1": "Gentil, Kathleen L.",
            "Address": "264 Beech Road",
            "City/State/ZIP": "Loveland, OH 45140",
            "City": "Loveland",
            "State": "OH",
            "Zip": "45140"
        }
    },
    {
        "case_number": "2024 ES 00405",
        "decedent_info": {
            "Decedent": "McTernan, Thomas F",
            "Address": "4300 Gleneste Withamsville Road",
            "City/State/ZIP": "Cincinnati, OH 45245",
            "City": "Cincinnati",
            "State": "OH",
            "Zip": "45245"
        },
        "fiduciary_info": {
            "Fiduciary 1": "Broscheid, Kelly",
            "Address": "5448 Hollyridge Court",
            "City/State/ZIP": "Taylor Mill, KY 41015",
            "City": "Taylor Mill",
            "State": "KY",
            "Zip": "41015"
        }
    },
    {
        "case_number": "2024 ES 00562",
        "decedent_info": {
            "Decedent": "Weissgarber, David",
            "Address": "6681 Lynne Haven Court",
            "City/State/ZIP": "Loveland, OH 45140",
            "City": "Loveland",
            "State": "OH",
            "Zip": "45140"
        },
        "fiduciary_info": {
            "Fiduciary 1": "Tibbs, Daryle C",
            "Address": "8845 Governors Hill Dr. Ste. 450",
            "City/State/ZIP": "Cincinnati, OH 45246",
            "City": "Cincinnati",
            "State": "OH",
            "Zip": "45246"
        }
    },
    {
        "case_number": "2024 ES 00565",
        "decedent_info": {
            "Decedent": "Closterman, Jr, Edward C.",
            "Address": "743 Washington Street",
            "City/State/ZIP": "New Richmond, OH 45157",
            "City": "New Richmond",
            "State": "OH",
            "Zip": "45157"
        },
        "fiduciary_info": {
            "Fiduciary 1": "Singler, James Alan",
            "Address": "8050 Hosbrook Rd., Suite 100",
            "City/State/ZIP": "Cincinnati, OH 45236",
            "City": "Cincinnati",
            "State": "OH",
            "Zip": "45236"
        }
    },
    {
        "case_number": "2024 ES 00567",
        "decedent_info": {
            "Decedent": "Smyth, Christopher",
            "Address": "4581 Carnoustie",
            "City/State/ZIP": "Batavia, OH 45103",
            "City": "Batavia",
            "State": "OH",
            "Zip": "45103"
        },
        "fiduciary_info": {
            "Fiduciary 1": "Smyth, Deborah L",
            "Address": "5829 Weaver Rd.",
            "City/State/ZIP": "Batavia, OH 45103",
            "City": "Batavia",
            "State": "OH",
            "Zip": "45103"
        }
    },
    {
        "case_number": "2024 ES 00569",
        "decedent_info": {
            "Decedent": "Turner, Robert Leslie",
            "Address": "3459 Virginia Drive",
            "City/State/ZIP": "Amelia, OH 45102",
            "City": "Amelia",
            "State": "OH",
            "Zip": "45102"
        },
        "fiduciary_info": {
            "Fiduciary 1": "Cowan, Heidi",
            "Address": "1030 Geneva Road",
            "City/State/ZIP": "Beavercreek, OH 45434",
            "City": "Beavercreek",
            "State": "OH",
            "Zip": "45434"
        }
    },
    {
        "case_number": "2024 ES 00571",
        "decedent_info": {
            "Decedent": "Vance, Stephen Dennis",
            "Address": "5883 Carrowbridge Court",
            "City/State/ZIP": "Milford, OH 45150",
            "City": "Milford",
            "State": "OH",
            "Zip": "45150"
        },
        "fiduciary_info": {
            "Fiduciary 1": "Craig, Meda C",
            "Address": "1102 Featherstone Court",
            "City/State/ZIP": "Milford, OH 45150",
            "City": "Milford",
            "State": "OH",
            "Zip": "45150"
        }
    },
    {
        "case_number": "2024 ES 00573",
        "decedent_info": {
            "Decedent": "Smith, Phillip Edward",
            "Address": "2572 Sprague Rd.",
            "City/State/ZIP": "Bethel, OH 45106",
            "City": "Bethel",
            "State": "OH",
            "Zip": "45106"
        },
        "fiduciary_info": {
            "Fiduciary 1": "Smith , Angela B",
            "Address": "2572 Sprague Road",
            "City/State/ZIP": "Bethel, OH 45106",
            "City": "Bethel",
            "State": "OH",
            "Zip": "45106"
        }
    },
    {
        "case_number": "2024 ES 00574",
        "decedent_info": {
            "Decedent": "Siepmann, Rainer",
            "Address": "5806 Needleleaf Drive",
            "City/State/ZIP": "Milford, OH 45150",
            "City": "Milford",
            "State": "OH",
            "Zip": "45150"
        },
        "fiduciary_info": {
            "Fiduciary 1": "Osborn, Jane",
            "Address": "331 Turtle Creek Drive",
            "City/State/ZIP": "Loveland, OH 45140",
            "City": "Loveland",
            "State": "OH",
            "Zip": "45140"
        }
    },
    {
        "case_number": "2024 ES 00575",
        "decedent_info": {
            "Decedent": "Parlier, Lafe Eric",
            "Address": "7218 Edenton Pleasant Plain Road",
            "City/State/ZIP": "Pleasant Pln, OH 45162",
            "City": "Pleasant Pln",
            "State": "OH",
            "Zip": "45162"
        },
        "fiduciary_info": {
            "Fiduciary 1": "Cain, Jennifer",
            "Address": "2359 Gibbs Road",
            "City/State/ZIP": "Goshen, OH 45122",
            "City": "Goshen",
            "State": "OH",
            "Zip": "45122"
        }
    },
    {
        "case_number": "2024 ES 00576",
        "decedent_info": {
            "Decedent": "Brown, Michael R",
            "Address": "5737 Cromley Dr.",
            "City/State/ZIP": "Milford, OH 45150",
            "City": "Milford",
            "State": "OH",
            "Zip": "45150"
        },
        "fiduciary_info": {
            "Fiduciary 1": "Brown, Julie Kathryn",
            "Address": "5737 Cromley Dr.",
            "City/State/ZIP": "Milford, OH 45150",
            "City": "Milford",
            "State": "OH",
            "Zip": "45150"
        }
    },
    {
        "case_number": "2024 ES 00579",
        "decedent_info": {
            "Decedent": "Savage, Linda Sue",
            "Address": "5145 Burdsall Road",
            "City/State/ZIP": "Williamsburg, OH 45176",
            "City": "Williamsburg",
            "State": "OH",
            "Zip": "45176"
        },
        "fiduciary_info": {
            "Fiduciary 1": "Savage, Adam Paul",
            "Address": "2346 St. Rt. 286",
            "City/State/ZIP": "Williamsburg, OH 45176",
            "City": "Williamsburg",
            "State": "OH",
            "Zip": "45176"
        }
    },
    {
        "case_number": "2024 ES 00580",
        "decedent_info": {
            "Decedent": "Gloyd, Naomi Clark",
            "Address": "746 Fox Creek Lane",
            "City/State/ZIP": "Cincinnati, OH 45245",
            "City": "Cincinnati",
            "State": "OH",
            "Zip": "45245"
        },
        "fiduciary_info": {
            "Fiduciary 1": "Sturm, Amanda Kate",
            "Address": "2660 S 3030 E.",
            "City/State/ZIP": "St George, UT 84790",
            "City": "St George",
            "State": "UT",
            "Zip": "84790"
        }
    },
    {
        "case_number": "2024 ES 00582",
        "decedent_info": {
            "Decedent": "Fleming, Ray Allen",
            "Address": "5739 Bucktown Road",
            "City/State/ZIP": "Williamsburg, OH 45176",
            "City": "Williamsburg",
            "State": "OH",
            "Zip": "45176"
        },
        "fiduciary_info": {
            "Fiduciary 1": "Fleming, Jeremy Ray Allen",
            "Address": "5739 Bucktown Road",
            "City/State/ZIP": "Williamsburg, OH 45176",
            "City": "Williamsburg",
            "State": "OH",
            "Zip": "45176"
        }
    },
    {
        "case_number": "2024 ES 00583",
        "decedent_info": {
            "Decedent": "Mathes, Kelly",
            "Address": "5108 Oakmont Dr.",
            "City/State/ZIP": "Goshen, OH 45122",
            "City": "Goshen",
            "State": "OH",
            "Zip": "45122"
        },
        "fiduciary_info": {
            "Fiduciary 1": "Mathes, Troy",
            "Address": "5108 Oakmont Dr.",
            "City/State/ZIP": "Goshen, OH 45122",
            "City": "Goshen",
            "State": "OH",
            "Zip": "45122"
        }
    },
    {
        "case_number": "2024 ES 00584",
        "decedent_info": {
            "Decedent": "Larison, George D",
            "Address": "2718 State Route 232",
            "City/State/ZIP": "Bethel, OH 45106",
            "City": "Bethel",
            "State": "OH",
            "Zip": "45106"
        },
        "fiduciary_info": {
            "Fiduciary 1": "Marshall, Donna Denise",
            "Address": "529 Elm Tree Court",
            "City/State/ZIP": "Cincinnati, OH 45244",
            "City": "Cincinnati",
            "State": "OH",
            "Zip": "45244"
        }
    },
    {
        "case_number": "2024 ES 00587",
        "decedent_info": {
            "Decedent": "Trageser, Paul W",
            "Address": "496 Wesley Drive",
            "City/State/ZIP": "Cincinnati, OH 45244",
            "City": "Cincinnati",
            "State": "OH",
            "Zip": "45244"
        },
        "fiduciary_info": {
            "Fiduciary 1": "Allbrinck, j Jeffrey",
            "Address": "600 Vine Street Suite 2650",
            "City/State/ZIP": "Cincinnati, OH 45202",
            "City": "Cincinnati",
            "State": "OH",
            "Zip": "45202"
        }
    },
    {
        "case_number": "2024 ES 00588",
        "decedent_info": {
            "Decedent": "Kratzer, Larry E",
            "Address": "2244 Siesta Drive",
            "City/State/ZIP": "Batavia, OH 45103",
            "City": "Batavia",
            "State": "OH",
            "Zip": "45103"
        },
        "fiduciary_info": {
            "Fiduciary 1": "Kratzer, Lisa A",
            "Address": "2244 Siesta Drive",
            "City/State/ZIP": "Batavia, OH 45103",
            "City": "Batavia",
            "State": "OH",
            "Zip": "45103"
        }
    },
    {
        "case_number": "2024 ES 00589",
        "decedent_info": {
            "Decedent": "Peck, Catherine D",
            "Address": null,
            "City/State/ZIP": null,
            "City": null,
            "State": null,
            "Zip": null
        },
        "fiduciary_info": {
            "Fiduciary 1": "Stanforth, Christopher M",
            "Address": null,
            "City/State/ZIP": null,
            "City": null,
            "State": null,
            "Zip": null
        }
    },
    {
        "case_number": "2024 ES 00591",
        "decedent_info": {
            "Decedent": "Smith, Phyllis E",
            "Address": "1945 State Route 28",
            "City/State/ZIP": "Goshen, OH 45122",
            "City": "Goshen",
            "State": "OH",
            "Zip": "45122"
        },
        "fiduciary_info": {
            "Fiduciary 1": "Smith, Bill E",
            "Address": "1945 State Route 28",
            "City/State/ZIP": "Goshen, OH 45122",
            "City": "Goshen",
            "State": "OH",
            "Zip": "45122"
        }
    },
    {
        "case_number": "2024 ES 00592",
        "decedent_info": {
            "Decedent": "Hale, Jr, John L",
            "Address": "304 High St.",
            "City/State/ZIP": "New Richmond, OH 45157",
            "City": "New Richmond",
            "State": "OH",
            "Zip": "45157"
        },
        "fiduciary_info": {
            "Fiduciary 1": "Hale, Vickie",
            "Address": "304 High Street",
            "City/State/ZIP": "New Richmond, OH 45157",
            "City": "New Richmond",
            "State": "OH",
            "Zip": "45157"
        }
    },
    {
        "case_number": "2024 ES 00594",
        "decedent_info": {
            "Decedent": "Willenborg, Janet A.",
            "Address": "3851 Vineyard Green Drive",
            "City/State/ZIP": "Cincinnati, OH 45255",
            "City": "Cincinnati",
            "State": "OH",
            "Zip": "45255"
        },
        "fiduciary_info": {
            "Fiduciary 1": "Ottman, Carol",
            "Address": "3637 S. Hopper Ridge Road",
            "City/State/ZIP": "Cincinnati, OH 45255",
            "City": "Cincinnati",
            "State": "OH",
            "Zip": "45255"
        }
    },
    {
        "case_number": "2024 ES 00596",
        "decedent_info": {
            "Decedent": "Marabe , Joseph",
            "Address": "406 Courtyard Lane",
            "City/State/ZIP": "Amelia, OH 45102",
            "City": "Amelia",
            "State": "OH",
            "Zip": "45102"
        },
        "fiduciary_info": {
            "Fiduciary 1": "Santos, Pamela",
            "Address": "406 Courtyard Lane",
            "City/State/ZIP": "Amelia, OH 45102",
            "City": "Amelia",
            "State": "OH",
            "Zip": "45102"
        }
    },
    {
        "case_number": "2024 ES 00597",
        "decedent_info": {
            "Decedent": "Campbell, Daniel Robert",
            "Address": "1655 Beckelhymer Road",
            "City/State/ZIP": "Moscow, OH 45153",
            "City": "Moscow",
            "State": "OH",
            "Zip": "45153"
        },
        "fiduciary_info": {
            "Fiduciary 1": "Campbell, Frances Ellen",
            "Address": "1655 Beckelhymer Road",
            "City/State/ZIP": "Moscow, OH 45153",
            "City": "Moscow",
            "State": "OH",
            "Zip": "45153"
        }
    },
    {
        "case_number": "2024 ES 00598",
        "decedent_info": {
            "Decedent": "Welling, Louis",
            "Address": "166 North 4th Street",
            "City/State/ZIP": "Williamsburg, OH 45176",
            "City": "Williamsburg",
            "State": "OH",
            "Zip": "45176"
        },
        "fiduciary_info": {
            "Fiduciary 1": "Johnson, Sharron",
            "Address": "3095 Brandi Lane",
            "City/State/ZIP": "Bethel, OH 45106",
            "City": "Bethel",
            "State": "OH",
            "Zip": "45106"
        }
    },
    {
        "case_number": "2024 ES 00599",
        "decedent_info": {
            "Decedent": "Simmermon, Larry N",
            "Address": "760 Neville-Penn Schoolhouse Rd.,",
            "City/State/ZIP": "Felicity, OH 45120",
            "City": "Felicity",
            "State": "OH",
            "Zip": "45120"
        },
        "fiduciary_info": {
            "Fiduciary 1": "Simmermon, David S",
            "Address": "2840 Bolender Road",
            "City/State/ZIP": "Felicity, OH 45120",
            "City": "Felicity",
            "State": "OH",
            "Zip": "45120"
        }
    },
    {
        "case_number": "2024 ES 00600",
        "decedent_info": {
            "Decedent": "Simmermon, Barbara G",
            "Address": "760 Neville Penn Schoolhouse Road",
            "City/State/ZIP": "Felicity, OH 45120",
            "City": "Felicity",
            "State": "OH",
            "Zip": "45120"
        },
        "fiduciary_info": {
            "Fiduciary 1": "Simmermon, David S",
            "Address": "2840 Bolender Road",
            "City/State/ZIP": "Felicity, OH 45120",
            "City": "Felicity",
            "State": "OH",
            "Zip": "45120"
        }
    }
]